CAS-2T & KS-1Q          
1 41847U 16066G   20334.86998267  .00000226  00000-0  43327-4 0  9993
2 41847  98.6326  26.8661 0366589  95.8734 268.4356 14.38118910213198
NAYIF-1 (EO-88)         
1 42017U 17008BX  20334.91038769  .00004762  00000-0  18179-3 0  9993
2 42017  97.3430  39.9395 0007769  96.1606 264.0518 15.27096896210795
ZHUHAI-1 02 (CAS-4B)    
1 42759U 17034B   20334.80504910  .00000789  00000-0  61157-4 0  9999
2 42759  43.0180 198.4829 0010792 346.3738 106.7359 15.09974912190962
ZHUHAI-1 01 (CAS-4A)    
1 42761U 17034D   20334.80702645  .00000826  00000-0  63252-4 0  9997
2 42761  43.0174 197.6609 0011230 348.0793 106.0671 15.10055013190967
MAX VALIER SAT          
1 42778U 17036P   20334.87150706  .00002784  00000-0  12115-3 0  9995
2 42778  97.2846  23.7642 0012874 153.3472 206.8430 15.22981373190900
RADFXSAT (FOX-1B)       
1 43017U 17073E   20334.73370803  .00001306  00000-0  10692-3 0  9997
2 43017  97.7162 240.5330 0254954 231.5457 126.2631 14.79179966163596
FOX-1D (AO-92)          
1 43137U 18004AC  20334.84821856  .00003149  00000-0  13082-3 0  9999
2 43137  97.4309  44.7704 0008842 184.2093 175.9072 15.24528841160241
DIWATA-2B               
1 43678U 18084H   20334.76205773  .00000289  00000-0  34502-4 0  9995
2 43678  97.9019  93.3450 0009871 359.4141   0.7088 14.91676728113662
ES'HAIL 2               
1 43700U 18090A   20334.58813340  .00000165  00000-0  00000+0 0  9997
2 43700   0.0146  18.7116 0002030 253.6274  34.1462  1.00274683  7609
FOX-1CLIFF (AO-95)      
1 43770U 18099N   20334.69018354  .00000964  00000-0  92938-4 0  9990
2 43770  97.6905  43.0506 0014721  11.5912 348.5644 14.95115666108604
ITASAT 1                
1 43786U 18099AE  20334.65044124  .00000320  00000-0  34072-4 0  9998
2 43786  97.6919  43.5495 0015182   4.3223 355.8126 14.95435107108628
JY1SAT (JO-97)          
1 43803U 18099AX  20334.71124770  .00000424  00000-0  43251-4 0  9995
2 43803  97.6880  43.3917 0015148   4.3267 355.8082 14.95638461108632
PSAT2 (NO-104)          
1 44354U 19036R   20334.77380756  .00030928  00000-0  44170-3 0  9995
2 44354  28.5335  12.3702 0349010 280.7007  75.4477 15.07347439 78758
BRICSAT2 (NO-103)       
1 44355U 19036S   20334.75881080  .00058425  00000-0  75824-3 0  9992
2 44355  28.5317 352.6181 0313204 312.8038  44.6618 15.16528854 78956
JAISAT-1                
1 44419U 19038F   20334.90357190  .00003222  00000-0  18476-3 0  9997
2 44419  97.5613 294.7874 0019711 281.7088  78.1931 15.13140984 77615
DUCHIFAT-3              
1 44854U 19089C   20334.74261931  .00000939  00000-0  81997-4 0  9996
2 44854  36.9663 201.4367 0009669 316.7752  43.2229 14.99221295 53110
RS-44 & BREEZE-KM R/B   
1 44909U 19096E   20334.87081272  .00000015  00000-0  15583-4 0  9990
2 44909  82.5230 245.3897 0216897 199.5092 159.7616 12.79707692 43343
ORBITAL FACTORY 2 (OF-2)
1 45113U 19071C   20334.27573999  .00007760  00000-0  24153-3 0  9993
2 45113  51.6431 286.9554 0012021 292.8760  67.0953 15.34194721 46428
HUSKYSAT-1              
1 45119U 19071J   20334.88473435  .00007276  00000-0  22614-3 0  9992
2 45119  51.6419 283.5217 0011228 291.4755  68.5030 15.34353529 46511
BY70-2                  
1 45857U 20042B   20334.89774928  .00002010  00000-0  29571-3 0  9993
2 45857  98.0022  46.6312 0012599 134.3132 225.9123 14.76487293 22095
SALSAT                  
1 46495U 20068K   20334.91775898  .00000176  00000-0  17505-4 0  9996
2 46495  97.6734 267.8381 0018243  30.4276 329.8007 15.03256587  9359
BY70-3                  
1 46839U 20079N   20334.78683940  .00005759  00000-0  18700-3 0  9990
2 46839  97.2637  46.5540 0007089 189.5268 326.0937 15.32302920  3610
